HAWK-9B                 
1 59450U 24066J   26068.43130858  .00002608  00000+0  23214-3 0  9995
2 59450  45.6215  73.5456 0003751 229.3903 130.6652 14.98778240104864
STARLINK-34051          
1 64022U 25102A   26068.49924251 -.00000203  00000+0 -92263-5 0  9995
2 64022  70.0013 114.9428 0003510 262.1194  97.9567 14.98336627 45922
